#dP2025  1  2 18  0  0.00000000      96 __u+U IGS20 EXT  IAC
## 2347 410400.00000000   900.00000000 60677 0.7500000000000
+   53   G01G02G03G04G05G06G07G08G09G10G11G12G13G14G15G16G17
+        G18G19G20G21G22G23G24G25G26G27G28G29G30G31G32R01R02
+        R03R04R05R07R08R09R11R12R14R15R16R17R18R19R20R21R22
+        R24R26  0  0  0  0  0  0  0  0  0  0  0  0  0  0  0
+          0  0  0  0  0  0  0  0  0  0  0  0  0  0  0  0  0
++         0  0  0  0  0  0  0  0  0  0  0  0  0  0  0  0  0
++         0  0  0  0  0  0  0  0  0  0  0  0  0  0  0  0  0
++         0  0  0  0  0  0  0  0  0  0  0  0  0  0  0  0  0
++         0  0  0  0  0  0  0  0  0  0  0  0  0  0  0  0  0
++         0  0  0  0  0  0  0  0  0  0  0  0  0  0  0  0  0
%c M  cc GPS ccc cccc cccc cccc cccc ccccc ccccc ccccc ccccc
%c cc cc ccc ccc cccc cccc cccc cccc ccccc ccccc ccccc ccccc
%f  0.0000000  0.000000000  0.00000000000  0.000000000000000
%f  0.0000000  0.000000000  0.00000000000  0.000000000000000
%i    0    0    0    0      0      0      0      0         0
%i    0    0    0    0      0      0      0      0         0
/* IAC                                ULTRA-RAPID PREDICTION
/* S/V CLOCKS ARE ALIGNED TO GNSS TIME                      
/* G:C1WC2W R:C1PC2P E:C1XC5X C:C2IC6I J:C1CC2S             
/* PCV:IGS20_2317 OL/AL:FES2004  NONE     YN ORB:CoN CLK:CoN
*  2025 01 03 15  0  0.00000000
PG01 -20106.283178 -15868.663374  -7030.336399     16.782549
PG02 -20770.761244 -13566.473507  -9537.068064   -276.659225
PG03 -12028.840298 -18497.470422  14702.301935    638.711024
PG04 -14782.600502  -7202.342444  20907.706842    506.244913
PG05   5619.246375  25890.321072  -1485.333140   -197.947168
PG06 -13305.898759   9323.168930  21112.449370    -92.245989
PG07 -25339.798569  -6400.766789  -5380.622222    -13.972894
PG08  -5038.225237 -15402.422941 -21100.220014    453.138848
PG09 -20572.069739   1591.795495  16671.875419    514.035696
PG10  10836.608687 -14580.048535 -19016.706687   -261.304838
PG11   -240.531998  16085.749824  21183.500667   -752.439859
PG12   9755.095638  21382.354929  12128.772388   -562.298334
PG13  -5277.297763  17826.756813 -19108.655691    692.268861
PG14 -13520.033176  10629.910974 -20134.097590    572.971964
PG15   7370.713220  14861.630371 -21245.537772    247.311932
PG16    945.873237 -26094.858741   2895.925584    -86.972925
PG17 -22950.726714  13240.123223  -2640.920348    490.866926
PG18  24830.523764   4533.345719  -8598.708668   -659.022162
PG19 -18900.533558  16997.690216   6731.197811    581.782067
PG20   -540.070560  24209.532083  11150.282152    367.358076
PG21 -15940.470431 -15725.997084 -14712.286565     99.818464
PG22 -10242.233123  18719.060006 -15624.580896    -90.288970
PG23  14954.328844   1064.838927 -21898.841847    396.594845
PG24  18696.599943  15097.538903 -12204.716700   -467.662342
PG25  15384.858969   9157.212010  19342.025209    497.277966
PG26   5726.979194 -21713.410911  13694.688607    -33.675902
PG27   6639.984662 -19801.980192 -16453.164883    -33.511193
PG28  15057.017709  -9113.706832  19880.168896   -525.901123
PG29  20831.557783    -11.220295  16504.596771   -550.386171
PG30 -21218.150897   3650.810351 -15574.643801   -247.237798
PG31   5871.629158 -14070.286908  21495.429872   -218.665934
PG32  20509.947644 -16688.384036    806.908492   -548.158308
PR01 -12992.072513   1644.802219  21890.364994    109.990442
PR02 -16523.119254  16216.498879  10837.485025    -38.743048
PR03 -10425.858411  22305.254325  -6746.640544    114.347964
PR04    719.026065  15772.141082 -20011.224882    271.071724
PR05  11727.111381   1061.858668 -22611.398716    143.208326
PR07  10145.997466 -22235.598155   7243.110147     98.178072
PR08  -1246.710254 -15577.369458  20208.891731     -6.264417
PR09   9890.778529  -5569.727965  22856.951605    229.955581
PR11 -10920.874670 -22918.724469   2576.407259      1.688342
PR12 -15369.082367 -12632.245441 -15940.169328     49.186882
PR14   1267.892879  19295.571861 -16620.824308     27.541552
PR15  11633.544934  22686.365496   -709.236675     72.535609
PR16  15322.362939  12746.446427  15899.808244     32.170012
PR17  -6331.827148  10084.128751  22567.168185    154.242945
PR18  11361.162051  10019.373919  20528.981401    180.086597
PR19  22631.525555   6506.645256   9814.534310   -304.239663
PR20  22563.467927  -3022.853456 -11448.866746   -124.138471
PR21   7797.999003  -9707.560522 -22259.648122   -165.062247
PR22 -12456.387961 -10386.710972 -19661.740950    -54.065186
PR24 -22136.477339   4616.445799  11813.110950    -86.680985
PR26    106.447059 -16914.451826  19121.527679   -132.162674
*  2025 01 03 15 15  0.00000000
PG01 -19139.989910 -15675.590159  -9664.302040     16.814054
PG02 -19483.670665 -13401.122596 -12006.766751   -276.651018
PG03 -12133.186875 -20068.291451  12412.903689    638.718188
PG04 -12882.265056  -8705.158012  21569.627389    506.250290
PG05   5399.657529  25922.299626   1401.318639   -197.948286
PG06 -15446.066408   8404.165624  20019.326419    -92.270727
PG07 -25729.298890  -6818.590777  -2620.893454    -13.972295
PG08  -3207.751629 -16884.047505 -20262.876551    453.146222
PG09 -19139.278431    162.839764  18352.922311    514.049523
PG10  11294.352358 -12323.599435 -20316.668221   -261.319186
PG11  -2499.804311  15153.515324  21713.791429   -752.439363
PG12   9649.405811  22682.311409   9663.951325   -562.300420
PG13  -7106.602818  18775.921266 -17499.431074    692.270115
PG14 -13946.178874   8296.569398 -20943.757426    572.978564
PG15   5782.815177  16515.734434 -20469.908287    247.315918
PG16   1275.721718 -25578.318760   5719.472378    -86.964362
PG17 -22672.699398  12761.248543  -5445.498378    490.851689
PG18  25527.217951   5016.832760  -5890.729594   -659.021230
PG19 -19578.252951  17119.074035   3929.414563    581.786235
PG20  -1203.857919  22966.088413  13488.701430    367.357791
PG21 -14155.202569 -15363.337227 -16638.813860     99.819916
PG22 -10539.544508  16787.673514 -17441.647495    -90.290908
PG23  15386.861470   3502.641190 -21359.361619    396.601646
PG24  17241.927353  14939.974724 -14391.414122   -467.659010
PG25  15646.317702  11344.432851  17973.121379    497.277508
PG26   6418.002263 -20099.911306  15713.614391    -33.689307
PG27   8100.457467 -20757.546108 -14421.971291    -33.510805
PG28  17099.285422  -8284.410338  18547.978088   -525.910135
PG29  19278.103076   1239.372172  18238.521958   -550.383220
PG30 -22716.341345   2844.979150 -13539.391730   -247.230301
PG31   8194.846560 -13129.143668  21364.155728   -218.665217
PG32  20603.262986 -16424.482693  -2066.498981   -548.152346
PR01 -11633.619605   -747.270215  22689.632491    109.991772
PR02 -15615.512173  15015.514661  13573.282227    -38.742813
PR03 -10608.842965  22945.865593  -3611.336738    114.348536
PR04   -415.766415  17849.968318 -18196.536151    271.073099
PR05  10235.017176   3461.651561 -23092.982688    143.209062
PR07  10362.377318 -22916.906363   4116.647580     98.178797
PR08   -117.758448 -17667.853936  18441.670603     -6.264732
PR09  11360.291138  -3185.376869  22622.208457    229.957589
PR11 -10787.695744 -22404.200379   5732.940334      1.686516
PR12 -16359.907343 -14160.359534 -13481.845490     49.187428
PR14    229.794160  17380.345961 -18656.958400     27.541684
PR15  11601.172188  22375.871150  -3895.855011     72.535339
PR16  16327.175598  14256.869892  13421.221705     32.170353
PR17  -9057.500655  10099.387933  21606.852325    154.246055
PR18   8750.410376   9867.474135  21844.822628    180.088332
PR19  21257.734910   6235.170200  12653.466766   -304.240805
PR20  23810.496945  -3140.069966  -8517.526809   -124.138908
PR21  10480.004600  -9713.926209 -21129.340616   -165.065127
PR22  -9938.694618 -10198.047041 -21135.572928    -54.066781
PR24 -23415.867364   4734.345104   8945.093560    -86.682325
PR26   1138.732395 -18897.041532  17126.512310   -132.162359
EOF
